0 IRIDIUM 33 DEB
1 36014U 97051UV  13282.78652074  .00016984  00000-0  26112-2 0  4404
2 36014 086.3494 102.3325 0024207 317.2258 042.8666 14.73236947221361
0 IRIDIUM 33 DEB
1 36014U 97051UV  13282.79733976  .00032542  00000-0  49898-2 0  4411
2 36014 086.3558 102.3318 0023900 316.3201 101.1169 14.73291807221364
0 IRIDIUM 33 DEB
1 36014U 97051UV  13283.47126376  .00037624  00000-0  57599-2 0  4421
2 36014 086.3550 102.0281 0024160 313.8350 075.6914 14.73329047221460
0 IRIDIUM 33 DEB
1 36014U 97051UV  13285.94069685  .00031324  00000-0  47842-2 0  4436
2 36014 086.3546 100.9168 0024681 304.7822 214.5778 14.73456380221820
0 IRIDIUM 33 DEB
1 36014U 97051UV  13286.95887641  .00029501  00000-0  45026-2 0  4445
2 36014 086.3536 100.4562 0023969 301.3956 215.4150 14.73507692221974
0 IRIDIUM 33 DEB
1 36014U 97051UV  13288.24265311  .00050872  00000-0  77201-2 0  4459
2 36014 086.3507 099.8707 0026111 296.7605 185.7634 14.73599769222168
0 IRIDIUM 33 DEB
1 36014U 97051UV  13289.26078942  .00045766  00000-0  69347-2 0  4463
2 36014 086.3460 099.4147 0026899 293.9216 186.4338 14.73680936222313
0 IRIDIUM 33 DEB
1 36014U 97051UV  13291.76183050  .00036033  00000-0  54497-2 0  4476
2 36014 086.3567 098.2950 0024030 285.7341 135.4579 14.73866266222686
0 IRIDIUM 33 DEB
1 36014U 97051UV  13292.93376972  .00038109  00000-0  57506-2 0  4484
2 36014 086.3554 097.7669 0024218 280.8352 234.6922 14.73949183222852
0 IRIDIUM 33 DEB
1 36014U 97051UV  13294.21768639  .00047539  00000-0  71504-2 0  4494
2 36014 086.3552 097.1884 0024117 276.4541 207.5953 14.74036875223043
0 IRIDIUM 33 DEB
1 36014U 97051UV  13295.42173574  .00053868  00000-0  80781-2 0  4507
2 36014 086.3552 096.6454 0024075 272.1334 117.2981 14.74130311223224
